CCSDS_OMM_VERS = 2.0
CREATION_DATE  = 
ORIGINATOR     = 

OBJECT_NAME    = HULIANWANG DIGUI-144
OBJECT_ID      = 2026-007H
CENTER_NAME    = EARTH
REF_FRAME      = TEME
TIME_SYSTEM    = UTC
MEAN_ELEMENT_THEORY = SGP/SGP4

EPOCH          = 2026-02-05T05:09:53.064864
MEAN_MOTION    = 13.78401600
ECCENTRICITY   = .00003981
INCLINATION    = 50.0078
RA_OF_ASC_NODE = 204.8735
ARG_OF_PERICENTER = 356.1504
MEAN_ANOMALY   = 3.9387

EPHEMERIS_TYPE = 0
CLASSIFICATION_TYPE = U
NORAD_CAT_ID   = 67442
ELEMENT_SET_NO = 999
REV_AT_EPOCH   = 314
BSTAR          = .14040365E-3
MEAN_MOTION_DOT = .1E-7
MEAN_MOTION_DDOT = 0

CCSDS_OMM_VERS = 2.0
CREATION_DATE  = 
ORIGINATOR     = 

OBJECT_NAME    = HULIANWANG DIGUI-145
OBJECT_ID      = 2026-007J
CENTER_NAME    = EARTH
REF_FRAME      = TEME
TIME_SYSTEM    = UTC
MEAN_ELEMENT_THEORY = SGP/SGP4

EPOCH          = 2026-02-05T05:04:56.883072
MEAN_MOTION    = 13.78565786
ECCENTRICITY   = .00005285
INCLINATION    = 50.0081
RA_OF_ASC_NODE = 204.8547
ARG_OF_PERICENTER = 286.1003
MEAN_ANOMALY   = 73.9832

EPHEMERIS_TYPE = 0
CLASSIFICATION_TYPE = U
NORAD_CAT_ID   = 67443
ELEMENT_SET_NO = 999
REV_AT_EPOCH   = 314
BSTAR          = .16233842E-3
MEAN_MOTION_DOT = .24E-6
MEAN_MOTION_DDOT = 0

CCSDS_OMM_VERS = 2.0
CREATION_DATE  = 
ORIGINATOR     = 

OBJECT_NAME    = CZ-8A R/B
OBJECT_ID      = 2026-007K
CENTER_NAME    = EARTH
REF_FRAME      = TEME
TIME_SYSTEM    = UTC
MEAN_ELEMENT_THEORY = SGP/SGP4

EPOCH          = 2026-02-04T22:58:50.078784
MEAN_MOTION    = 14.13551166
ECCENTRICITY   = .00921983
INCLINATION    = 50.0083
RA_OF_ASC_NODE = 202.1354
ARG_OF_PERICENTER = 159.5940
MEAN_ANOMALY   = 200.8689

EPHEMERIS_TYPE = 0
CLASSIFICATION_TYPE = U
NORAD_CAT_ID   = 67444
ELEMENT_SET_NO = 999
REV_AT_EPOCH   = 315
BSTAR          = .5521102E-5
MEAN_MOTION_DOT = -.145E-5
MEAN_MOTION_DDOT = 0

CCSDS_OMM_VERS = 2.0
CREATION_DATE  = 
ORIGINATOR     = 

OBJECT_NAME    = STARLINK-36542
OBJECT_ID      = 2026-008A
CENTER_NAME    = EARTH
REF_FRAME      = TEME
TIME_SYSTEM    = UTC
MEAN_ELEMENT_THEORY = SGP/SGP4

EPOCH          = 2026-02-05T06:00:02.999808
MEAN_MOTION    = 15.59795200
ECCENTRICITY   = .00011088
INCLINATION    = 43.0000
RA_OF_ASC_NODE = 30.6125
ARG_OF_PERICENTER = 281.2396
MEAN_ANOMALY   = 162.5320

EPHEMERIS_TYPE = 0
CLASSIFICATION_TYPE = U
NORAD_CAT_ID   = 67445
ELEMENT_SET_NO = 999
REV_AT_EPOCH   = 458
BSTAR          = -.28680673E-1
MEAN_MOTION_DOT = -.2105251E-1
MEAN_MOTION_DDOT = 0

CCSDS_OMM_VERS = 2.0
CREATION_DATE  = 
ORIGINATOR     = 

OBJECT_NAME    = STARLINK-36539
OBJECT_ID      = 2026-008B
CENTER_NAME    = EARTH
REF_FRAME      = TEME
TIME_SYSTEM    = UTC
MEAN_ELEMENT_THEORY = SGP/SGP4

EPOCH          = 2026-02-05T06:00:02.999808
MEAN_MOTION    = 15.61707396
ECCENTRICITY   = .0000992
INCLINATION    = 43.0001
RA_OF_ASC_NODE = 30.5537
ARG_OF_PERICENTER = 286.3676
MEAN_ANOMALY   = 181.1682

EPHEMERIS_TYPE = 0
CLASSIFICATION_TYPE = U
NORAD_CAT_ID   = 67446
ELEMENT_SET_NO = 999
REV_AT_EPOCH   = 458
BSTAR          = -.26613231E-1
MEAN_MOTION_DOT = -.2064374E-1
MEAN_MOTION_DDOT = 0

CCSDS_OMM_VERS = 2.0
CREATION_DATE  = 
ORIGINATOR     = 

OBJECT_NAME    = STARLINK-36440
OBJECT_ID      = 2026-008C
CENTER_NAME    = EARTH
REF_FRAME      = TEME
TIME_SYSTEM    = UTC
MEAN_ELEMENT_THEORY = SGP/SGP4

EPOCH          = 2026-02-04T09:27:18.451584
MEAN_MOTION    = 15.74395349
ECCENTRICITY   = .00007308
INCLINATION    = 42.9995
RA_OF_ASC_NODE = 35.5635
ARG_OF_PERICENTER = 302.0276
MEAN_ANOMALY   = 58.0522

EPHEMERIS_TYPE = 0
CLASSIFICATION_TYPE = U
NORAD_CAT_ID   = 67447
ELEMENT_SET_NO = 999
REV_AT_EPOCH   = 445
BSTAR          = -.44540379E-2
MEAN_MOTION_DOT = -.618888E-2
MEAN_MOTION_DDOT = 0

CCSDS_OMM_VERS = 2.0
CREATION_DATE  = 
ORIGINATOR     = 

OBJECT_NAME    = STARLINK-36423
OBJECT_ID      = 2026-008D
CENTER_NAME    = EARTH
REF_FRAME      = TEME
TIME_SYSTEM    = UTC
MEAN_ELEMENT_THEORY = SGP/SGP4

EPOCH          = 2026-02-05T06:00:02.999808
MEAN_MOTION    = 15.57107152
ECCENTRICITY   = .00012686
INCLINATION    = 43.0003
RA_OF_ASC_NODE = 30.6862
ARG_OF_PERICENTER = 278.0021
MEAN_ANOMALY   = 135.7684

EPHEMERIS_TYPE = 0
CLASSIFICATION_TYPE = U
NORAD_CAT_ID   = 67448
ELEMENT_SET_NO = 999
REV_AT_EPOCH   = 458
BSTAR          = -.31806772E-1
MEAN_MOTION_DOT = -.2106803E-1
MEAN_MOTION_DDOT = 0

CCSDS_OMM_VERS = 2.0
CREATION_DATE  = 
ORIGINATOR     = 

OBJECT_NAME    = STARLINK-36519
OBJECT_ID      = 2026-008E
CENTER_NAME    = EARTH
REF_FRAME      = TEME
TIME_SYSTEM    = UTC
MEAN_ELEMENT_THEORY = SGP/SGP4

EPOCH          = 2026-02-05T06:00:02.999808
MEAN_MOTION    = 15.67358100
ECCENTRICITY   = .00008809
INCLINATION    = 42.9998
RA_OF_ASC_NODE = 30.4211
ARG_OF_PERICENTER = 270.3520
MEAN_ANOMALY   = 250.4243

EPHEMERIS_TYPE = 0
CLASSIFICATION_TYPE = U
NORAD_CAT_ID   = 67449
ELEMENT_SET_NO = 999
REV_AT_EPOCH   = 458
BSTAR          = -.21278512E-1
MEAN_MOTION_DOT = -.2070913E-1
MEAN_MOTION_DDOT = 0

CCSDS_OMM_VERS = 2.0
CREATION_DATE  = 
ORIGINATOR     = 

OBJECT_NAME    = STARLINK-36525
OBJECT_ID      = 2026-008F
CENTER_NAME    = EARTH
REF_FRAME      = TEME
TIME_SYSTEM    = UTC
MEAN_ELEMENT_THEORY = SGP/SGP4

EPOCH          = 2026-02-05T06:00:02.999808
MEAN_MOTION    = 15.59586053
ECCENTRICITY   = .00010503
INCLINATION    = 43.0001
RA_OF_ASC_NODE = 30.5938
ARG_OF_PERICENTER = 284.8661
MEAN_ANOMALY   = 165.9376

EPHEMERIS_TYPE = 0
CLASSIFICATION_TYPE = U
NORAD_CAT_ID   = 67450
ELEMENT_SET_NO = 999
REV_AT_EPOCH   = 458
BSTAR          = -.2883173E-1
MEAN_MOTION_DOT = -.2099938E-1
MEAN_MOTION_DDOT = 0

CCSDS_OMM_VERS = 2.0
CREATION_DATE  = 
ORIGINATOR     = 

OBJECT_NAME    = STARLINK-36511
OBJECT_ID      = 2026-008G
CENTER_NAME    = EARTH
REF_FRAME      = TEME
TIME_SYSTEM    = UTC
MEAN_ELEMENT_THEORY = SGP/SGP4

EPOCH          = 2026-02-05T06:00:02.999808
MEAN_MOTION    = 15.57369328
ECCENTRICITY   = .0001204
INCLINATION    = 43.0004
RA_OF_ASC_NODE = 30.6624
ARG_OF_PERICENTER = 276.6005
MEAN_ANOMALY   = 146.6600

EPHEMERIS_TYPE = 0
CLASSIFICATION_TYPE = U
NORAD_CAT_ID   = 67451
ELEMENT_SET_NO = 999
REV_AT_EPOCH   = 458
BSTAR          = -.31500424E-1
MEAN_MOTION_DOT = -.2107212E-1
MEAN_MOTION_DDOT = 0

CCSDS_OMM_VERS = 2.0
CREATION_DATE  = 
ORIGINATOR     = 

OBJECT_NAME    = STARLINK-36524
OBJECT_ID      = 2026-008H
CENTER_NAME    = EARTH
REF_FRAME      = TEME
TIME_SYSTEM    = UTC
MEAN_ELEMENT_THEORY = SGP/SGP4

EPOCH          = 2026-02-05T06:00:02.999808
MEAN_MOTION    = 15.60397854
ECCENTRICITY   = .00009084
INCLINATION    = 42.9998
RA_OF_ASC_NODE = 30.5596
ARG_OF_PERICENTER = 271.9872
MEAN_ANOMALY   = 192.3977

EPHEMERIS_TYPE = 0
CLASSIFICATION_TYPE = U
NORAD_CAT_ID   = 67452
ELEMENT_SET_NO = 999
REV_AT_EPOCH   = 458
BSTAR          = -.2802767E-1
MEAN_MOTION_DOT = -.2105672E-1
MEAN_MOTION_DDOT = 0

CCSDS_OMM_VERS = 2.0
CREATION_DATE  = 
ORIGINATOR     = 

OBJECT_NAME    = STARLINK-36518
OBJECT_ID      = 2026-008J
CENTER_NAME    = EARTH
REF_FRAME      = TEME
TIME_SYSTEM    = UTC
MEAN_ELEMENT_THEORY = SGP/SGP4

EPOCH          = 2026-02-05T06:00:02.999808
MEAN_MOTION    = 15.63137827
ECCENTRICITY   = .0001017
INCLINATION    = 42.9993
RA_OF_ASC_NODE = 30.1180
ARG_OF_PERICENTER = 265.3436
MEAN_ANOMALY   = 12.8623

EPHEMERIS_TYPE = 0
CLASSIFICATION_TYPE = U
NORAD_CAT_ID   = 67453
ELEMENT_SET_NO = 999
REV_AT_EPOCH   = 460
BSTAR          = -.25082034E-1
MEAN_MOTION_DOT = -.2059512E-1
MEAN_MOTION_DDOT = 0

