HULIANWANG DIGUI-144    
1 67442U 26007H   26036.21519751  .00000001  00000+0  14040-3 0  9998
2 67442  50.0078 204.8735 0000398 356.1504   3.9387 13.78401600  3146
HULIANWANG DIGUI-145    
1 67443U 26007J   26036.21176948  .00000024  00000+0  16234-3 0  9998
2 67443  50.0081 204.8547 0000528 286.1003  73.9832 13.78565786  3141
CZ-8A R/B               
1 67444U 26007K   26035.95752406 -.00000145  00000+0  55211-5 0  9993
2 67444  50.0083 202.1354 0092198 159.5940 200.8689 14.13551166  3157
STARLINK-36542          
1 67445U 26008A   26036.25003472 -.02105251  00000+0 -28681-1 0  9995
2 67445  43.0000  30.6125 0001108 281.2396 162.5320 15.59795200  4582
STARLINK-36539          
1 67446U 26008B   26036.25003472 -.02064374  00000+0 -26613-1 0  9999
2 67446  43.0001  30.5537 0000992 286.3676 181.1682 15.61707396  4587
STARLINK-36440          
1 67447U 26008C   26035.39396356 -.00618888  00000+0 -44540-2 0  9993
2 67447  42.9995  35.5635 0000730 302.0276  58.0522 15.74395349  4450
STARLINK-36423          
1 67448U 26008D   26036.25003472 -.02106803  00000+0 -31807-1 0  9996
2 67448  43.0003  30.6862 0001268 278.0021 135.7684 15.57107152  4588
STARLINK-36519          
1 67449U 26008E   26036.25003472 -.02070913  00000+0 -21279-1 0  9991
2 67449  42.9998  30.4211 0000880 270.3520 250.4243 15.67358100  4582
STARLINK-36525          
1 67450U 26008F   26036.25003472 -.02099938  00000+0 -28832-1 0  9993
2 67450  43.0001  30.5938 0001050 284.8661 165.9376 15.59586053  4582
STARLINK-36511          
1 67451U 26008G   26036.25003472 -.02107212  00000+0 -31500-1 0  9995
2 67451  43.0004  30.6624 0001204 276.6005 146.6600 15.57369328  4589
STARLINK-36524          
1 67452U 26008H   26036.25003472 -.02105672  00000+0 -28028-1 0  9995
2 67452  42.9998  30.5596 0000908 271.9872 192.3977 15.60397854  4581
STARLINK-36518          
1 67453U 26008J   26036.25003472 -.02059512  00000+0 -25082-1 0  9994
2 67453  42.9993  30.1180 0001017 265.3436  12.8623 15.63137827  4609
